{
    "links": {
        "self": "http://www.neowsapp.com/rest/v1/neo/3182820?api_key=iIulBulltgU6a56xZRHN4H3l9WmuAYTsLGpBGhQ2"
    },
    "id": "3182820",
    "neo_reference_id": "3182820",
    "name": "(2004 KZ)",
    "designation": "2004 KZ",
    "nasa_jpl_url": "http://ssd.jpl.nasa.gov/sbdb.cgi?sstr=3182820",
    "absolute_magnitude_h": 25.5,
    "estimated_diameter": {
        "kilometers": {
            "estimated_diameter_min": 0.0211132445,
            "estimated_diameter_max": 0.0472106499
        },
        "meters": {
            "estimated_diameter_min": 21.113244479,
            "estimated_diameter_max": 47.2106498806
        },
        "miles": {
            "estimated_diameter_min": 0.0131191578,
            "estimated_diameter_max": 0.0293353287
        },
        "feet": {
            "estimated_diameter_min": 69.2691770164,
            "estimated_diameter_max": 154.8905885541
        }
    },
    "is_potentially_hazardous_asteroid": false,
    "close_approach_data": [
        {
            "close_approach_date": "2001-06-08",
            "close_approach_date_full": "2001-Jun-08 07:09",
            "epoch_date_close_approach": 991984140000,
            "relative_velocity": {
                "kilometers_per_second": "23.5027447295",
                "kilometers_per_hour": "84609.8810261197",
                "miles_per_hour": "52573.2896853687"
            },
            "miss_distance": {
                "astronomical": "0.4282606665",
                "lunar": "166.5933992685",
                "kilometers": "64066883.513180355",
                "miles": "39809315.432604699"
            },
            "orbiting_body": "Earth"
        },
        {
            "close_approach_date": "2004-05-16",
            "close_approach_date_full": "2004-May-16 06:19",
            "epoch_date_close_approach": 1084688340000,
            "relative_velocity": {
                "kilometers_per_second": "11.898144488",
                "kilometers_per_hour": "42833.3201569116",
                "miles_per_hour": "26614.9594052765"
            },
            "miss_distance": {
                "astronomical": "0.012684134",
                "lunar": "4.934128126",
                "kilometers": "1897519.42919458",
                "miles": "1179063.899382004"
            },
            "orbiting_body": "Earth"
        }
    ],
    "orbital_data": {
        "orbit_id": "7",
        "orbit_determination_date": "2017-04-06 09:12:46",
        "first_observation_date": "2004-05-18",
        "last_observation_date": "2004-05-20",
        "data_arc_in_days": 2,
        "observations_used": 28,
        "orbit_uncertainty": "8",
        "minimum_orbit_intersection": ".0123753",
        "jupiter_tisserand_invariant": "4.936",
        "epoch_osculation": "2453144.5",
        "eccentricity": ".3751869152756047",
        "semi_major_axis": "1.289742487963101",
        "inclination": "12.41813295611442",
        "ascending_node_longitude": "58.49504861963678",
        "orbital_period": "534.9989595401488",
        "perihelion_distance": ".8058479824043412",
        "perihelion_argument": "100.9281903199392",
        "aphelion_distance": "1.77363699352186",
        "perihelion_time": "2453085.227918203410",
        "mean_anomaly": "39.88409522349941",
        "mean_motion": ".6728985049044455",
        "equinox": "J2000",
        "orbit_class": {
            "orbit_class_type": "APO",
            "orbit_class_description": "Near-Earth asteroid orbits which cross the Earth’s orbit similar to that of 1862 Apollo",
            "orbit_class_range": "a (semi-major axis) > 1.0 AU; q (perihelion) < 1.017 AU"
        }
    },
    "is_sentry_object": false
}